[Satellite]
VERSION=1.1
NAME=NOVA I
NICKNAME=NOVA I
TLE1=1 12458U 81044A   17186.26086927  .00000041  00000-0  77581-4 0  9997
TLE2=2 12458  89.9581 121.3713 0013394 330.8821 184.4622 13.22963309744252
